[{"OBJECT_NAME":"STARLINK-2385","OBJECT_ID":"2021-018T","EPOCH":"2026-03-10T00:00:02.999808","MEAN_MOTION":15.29343467,"ECCENTRICITY":0.00013042,"INCLINATION":53.1553,"RA_OF_ASC_NODE":228.6907,"ARG_OF_PERICENTER":89.457,"MEAN_ANOMALY":150.4557,"EPHEMERIS_TYPE":0,"CLASSIFICATION_TYPE":"U","NORAD_CAT_ID":47804,"ELEMENT_SET_NO":999,"REV_AT_EPOCH":579,"BSTAR":0.00030794582,"MEAN_MOTION_DOT":8.537e-5,"MEAN_MOTION_DDOT":0},{"OBJECT_NAME":"DONGPO 08","OBJECT_ID":"2022-167E","EPOCH":"2026-03-09T22:57:52.742880","MEAN_MOTION":15.31542505,"ECCENTRICITY":0.00092155,"INCLINATION":97.6764,"RA_OF_ASC_NODE":233.3854,"ARG_OF_PERICENTER":153.9158,"MEAN_ANOMALY":206.2548,"EPHEMERIS_TYPE":0,"CLASSIFICATION_TYPE":"U","NORAD_CAT_ID":54686,"ELEMENT_SET_NO":999,"REV_AT_EPOCH":18012,"BSTAR":0.0004734784,"MEAN_MOTION_DOT":0.0001437,"MEAN_MOTION_DDOT":0}]
